ICEYE-X65               
1 66300U 25248H   26194.45076286  .00001812  00000+0  13215-3 0  9992
2 66300  45.4057 356.0731 0005372 190.0935 169.9839 15.07921769 39487
ICEYE-X66               
1 66301U 25248J   26194.51609847  .00001922  00000+0  13470-3 0  9990
2 66301  45.4024 354.8280 0005031 186.3508 173.7311 15.09170285 39482
ICEYE-X67               
1 66302U 25248K   26194.47456764  .00001671  00000+0  11920-3 0  9993
2 66302  45.4059 354.6245 0006457 185.9763 174.1043 15.09152706 39497
ICEYE-X58               
1 66751U 25276CP  26193.77348287  .00001629  00000+0  85086-4 0  9992
2 66751  97.4196 266.7018 0001998 226.7753 133.3314 15.17299977 34295
ICEYE-X59               
1 66752U 25276CQ  26193.74548334  .00002964  00000+0  23826-3 0  9991
2 66752  97.4386 263.9505 0000816 138.9490 221.1796 15.00739965 34105
ICEYE-X60               
1 66753U 25276CR  26193.74930697  .00003164  00000+0  19247-3 0  9994
2 66753  97.4200 265.6603 0001480 353.8857   6.2355 15.11136424 34221
ICEYE-X61               
1 66754U 25276CS  26194.18908978  .00001654  00000+0  83186-4 0  9997
2 66754  97.4197 267.1944 0001926 224.2534 135.8547 15.18602320 34367
ICEYE-X62               
1 66755U 25276CT  26193.77366080  .00001078  00000+0  69919-4 0  9992
2 66755  97.4194 265.1809 0000657 276.9402  83.1753 15.10126973 34193
ICEYE-X71               
1 68494U 26067CG  26194.49025442  .00001446  00000+0  14897-3 0  9990
2 68494  97.7625 152.3236 0001149 353.8448   6.2757 14.91788048 15644
ICEYE-X73               
1 68496U 26067CJ  26194.45153463  .00001233  00000+0  12607-3 0  9994
2 68496  97.7620 152.3700 0001345 151.4511 208.6781 14.92344262 15640
ICEYE-X75               
1 68497U 26067CK  26194.45581422  .00000400  00000+0  44787-4 0  9995
2 68497  97.7605 152.3421 0001263 147.5387 212.5910 14.92171995 15649
ICEYE-X74               
1 68500U 26067CN  26194.42231442  .00001444  00000+0  14878-3 0  9997
2 68500  97.7633 152.2667 0000981 351.8110   8.3093 14.91788138 15630
ICEYE-X76               
1 68502U 26067CQ  26194.48523330  .00000578  00000+0  62917-4 0  9990
2 68502  97.7639 152.3467 0000660 333.8197  26.2988 14.91748501 15649
